{
    "links": {
        "self": "http://www.neowsapp.com/rest/v1/neo/3873151?api_key=iIulBulltgU6a56xZRHN4H3l9WmuAYTsLGpBGhQ2"
    },
    "id": "3873151",
    "neo_reference_id": "3873151",
    "name": "(2019 SG9)",
    "designation": "2019 SG9",
    "nasa_jpl_url": "http://ssd.jpl.nasa.gov/sbdb.cgi?sstr=3873151",
    "absolute_magnitude_h": 25.0,
    "estimated_diameter": {
        "kilometers": {
            "estimated_diameter_min": 0.02658,
            "estimated_diameter_max": 0.0594346868
        },
        "meters": {
            "estimated_diameter_min": 26.58,
            "estimated_diameter_max": 59.4346868419
        },
        "miles": {
            "estimated_diameter_min": 0.0165160412,
            "estimated_diameter_max": 0.0369309908
        },
        "feet": {
            "estimated_diameter_min": 87.2047272,
            "estimated_diameter_max": 194.9956979785
        }
    },
    "is_potentially_hazardous_asteroid": false,
    "close_approach_data": [
        {
            "close_approach_date": "2019-09-25",
            "close_approach_date_full": "2019-Sep-25 14:06",
            "epoch_date_close_approach": 1569420360000,
            "relative_velocity": {
                "kilometers_per_second": "16.3521553511",
                "kilometers_per_hour": "58867.7592640482",
                "miles_per_hour": "36578.1363049304"
            },
            "miss_distance": {
                "astronomical": "0.0245097077",
                "lunar": "9.5342762953",
                "kilometers": "3666600.066242599",
                "miles": "2278319.6340779062"
            },
            "orbiting_body": "Earth"
        }
    ],
    "orbital_data": {
        "orbit_id": "4",
        "orbit_determination_date": "2019-10-20 06:05:11",
        "first_observation_date": "2019-09-30",
        "last_observation_date": "2019-10-07",
        "data_arc_in_days": 7,
        "observations_used": 60,
        "orbit_uncertainty": "8",
        "minimum_orbit_intersection": ".0155926",
        "jupiter_tisserand_invariant": "2.797",
        "epoch_osculation": "2458757.5",
        "eccentricity": ".7098043295552483",
        "semi_major_axis": "2.982747902648215",
        "inclination": "9.224390292100649",
        "ascending_node_longitude": "5.228896745247955",
        "orbital_period": "1881.582435827586",
        "perihelion_distance": ".8655805273766758",
        "perihelion_argument": "305.9166161744283",
        "aphelion_distance": "5.099915277919754",
        "perihelion_time": "2458717.403969649022",
        "mean_anomaly": "7.671505989586501",
        "mean_motion": ".1913283166047729",
        "equinox": "J2000",
        "orbit_class": {
            "orbit_class_type": "APO",
            "orbit_class_description": "Near-Earth asteroid orbits which cross the Earth’s orbit similar to that of 1862 Apollo",
            "orbit_class_range": "a (semi-major axis) > 1.0 AU; q (perihelion) < 1.017 AU"
        }
    },
    "is_sentry_object": false
}